#cP2022  3 15 12  0  0.00000000     576 d+D   IGb14 EXT AIUB
## 2201 216000.00000000   300.00000000 59653 0.5000000000000
+   76   G01G02G03G04G05G06G07G08G09G10G11G12G13G14G15G16G17
+        G18G19G20G21G22G23G24G25G26G27G28G29G30G31G32R01R02
+        R03R04R05R07R08R09R12R13R14R15R17R18R19R20R21R22R24
+        E01E02E03E04E05E07E08E10E11E12E13E14E15E18E19E21E24
+        E25E26E27E30E31E33E34E36  0  0  0  0  0  0  0  0  0
++         6  7  6  8  7  7  7  6  5  6  8  7  7  7  7  7  7
++         8  7  7  7  8  7  7  6  6  6  7  7  5  7  6  8  7
++         8  8  7  7  7  7  7  7  7  7  8  6  8  9  8  9  8
++         6  6  7  7  7  7  6  7  6  8  6  5  6  6  6  6  6
++         6  7  5  6  5  7  6  7  0  0  0  0  0  0  0  0  0
%c M  cc GPS ccc cccc cccc cccc cccc ccccc ccccc ccccc ccccc
%c cc cc ccc ccc cccc cccc cccc cccc ccccc ccccc ccccc ccccc
%f  1.2500000  1.025000000  0.00000000000  0.000000000000000
%f  0.0000000  0.000000000  0.00000000000  0.000000000000000
%i    0    0    0    0      0      0      0      0         0
%i    0    0    0    0      0      0      0      0         0
/* Center for Orbit Determination in Europe (CODE)          
/* Ultra-rapid GRE orbits starting year-day 22074 12 hour   
/* Observed/predicted: 24/24 hours (data used up to 075L)   
/* PCV:IGS14      OL/AL:FES2014b NONE     YN ORB:CoN CLK:BRD
*  2022  3 17  9 40  0.00000000
PG01 -15061.063802   -240.089940  21632.429383    406.911858               P   P
PG02  14815.631300  19901.500419  -8621.223227   -652.345428               P   P
PG03 -20732.595241   9591.783323  13351.581450   -167.291838               P   P
PG04 -25081.015081    261.066658  -8855.700739   -183.029087               P   P
PG05  14967.969143   5440.703757 -21437.450408    -74.974967               P   P
PG06   4895.089989  25596.082592   4976.786015    234.235651               P   P
PG07  -8355.685816  16650.939283 -18351.354388    316.426498               P   P
PG08 -26050.381083  -5916.368441  -1525.910554    -60.180460               P   P
PG09 -18137.042279   9033.187314 -17255.309593   -349.298390               P   P
PG10   8833.117077 -22041.360810  11738.351587   -349.513413               P   P
PG11  12751.482157  21181.785723  -9727.889915    -61.442761               P   P
PG12  20678.772398  -5347.730445  15434.426980   -186.168377               P   P
PG13  21640.814329  13429.810780  -7980.295605    278.287291               P   P
PG14 -10478.722278  21865.292782  10748.063519    -94.644434               P   P
PG15  26531.549487   3138.910424  -1406.707679    -76.139898               P   P
PG16 -11276.910202 -10180.233605 -22068.877257   -481.609554               P   P
PG17  -2365.828732  14871.506926  22309.995700    588.311744               P   P
PG18   8316.187990 -16724.661293 -18845.423318    217.888828               P   P
PG19   6268.778908  16115.192551  19955.827679    132.130875               P   P
PG20   8599.728935  14391.637873 -20646.868171    516.267939               P   P
PG21 -17845.310415 -10494.093847  17657.886460    159.486743               P   P
PG22  -9316.461214 -16579.497444  19021.464351    228.815966               P   P
PG23  16546.236972 -20687.109161    972.310011     -7.514465               P   P
PG24  17346.073289   4090.091324  19514.815032    267.237034               P   P
PG25  19621.165673 -16837.117737   5106.609634    299.466365               P   P
PG26  -1852.592860 -19146.314022 -18269.857509    191.467425               P   P
PG27 -20354.695598 -12613.937632 -12113.650848    156.708866               P   P
PG28  -3471.429172  19957.190616  17814.315142    378.618864               P   P
PG29  20046.131275  -5745.562836 -16533.576662   -492.351319               P   P
PG30  -2740.037486  22938.106299 -12807.608752   -519.147036               P   P
PG31  -6206.754604 -25464.350571   2105.518922   -169.298743               P   P
PG32  -2312.018246 -15785.747702  21396.486468    -86.450734               P   P
PR01   7873.834465   9032.896741 -22513.989949      7.258728               P   P
PR02  23136.397743   -588.656968 -10608.444288    512.674451               P   P
PR03  22811.023375  -9145.914019   6776.134475     53.207390               P   P
PR04   9873.813506 -12191.816652  20141.816753    132.341088               P   P
PR05  -8545.844356  -8681.329145  22429.712542     89.547670               P   P
PR07 -22595.496857   9330.215633  -7324.155785     32.706186               P   P
PR08  -9766.198991  12291.614782 -20052.378635    -64.028427               P   P
PR09 -11068.385065  -2325.063724 -22849.611168     44.774327               P   P
PR12   2940.227344  19225.039351  16537.274211     17.487669               P   P
PR13  10466.617530   3515.122569  22973.523347    -19.711732               P   P
PR14  12252.748358 -15706.563038  15945.611367     75.468055               P   P
PR15   6702.499453 -24610.354969   -180.904417     97.506680               P   P
PR17  11854.132540  -2398.105136 -22454.425342    510.201922               P   P
PR18  -1599.574718 -15019.775218 -20558.264733    110.529433               P   P
PR19 -12911.656671 -20126.990107  -8886.161418   -181.850970               P   P
PR20 -18682.313105 -13219.833083  11324.744298    -66.823326               P   P
PR21 -10785.262992   3577.953362  22835.713862   -285.942240               P   P
PR22   2168.647434  15400.539685  20170.578407   -171.124351               P   P
PR24  19071.857340  12137.868007 -11804.325274     84.780307               P   P
PE01  17271.736929 -24014.827130    885.690563   -598.405047               P   P
PE02 -17206.284102  24089.147679   -745.469128    286.797143               P   P
PE03 -15923.910776  13600.989485 -20914.341169   -538.241557               P   P
PE04  -5981.022197 -17039.927322  23461.941538   -986.355915               P   P
PE05 -28906.823029   2090.928830  -6012.604413   -199.592547               P   P
PE07  24885.549207  10454.219415 -12150.066146   -649.172198               P   P
PE08   6495.674801  16840.461146 -23457.955240   -496.562419               P   P
PE10 -14437.439743 -25733.656580   2371.353035   -501.001897               P   P
PE11 -18453.718856 -19676.026626  12206.010087   4208.430314               P   P
PE12  -8188.598495 -27513.032247  -7274.290607   4709.366086               P   P
PE13  18292.466652  20138.444131 -11639.004187    427.353859               P   P
PE14   3892.214395  16474.685492  17976.181102  -1781.155525               P   P
PE15   8154.056549  27456.223846   7456.581248    757.286849               P   P
PE18   5436.455818 -19451.144217 -24368.435677  -1674.296278               P   P
PE19  18276.763852 -12385.813606  19723.306407  -1456.108438               P   P
PE21  21550.594555 -10840.838901  17140.777718   -723.020545               P   P
PE24 -12934.039793 -10639.935500 -24422.992589   -509.982704               P   P
PE25 -21538.092913  10603.588837 -17322.989153   -567.087921               P   P
PE26  17413.891807    -64.103876 -23928.006071   -922.115511               P   P
PE27  13752.018369   9383.808694  24471.544664   -255.061694               P   P
PE30  -3055.349210  24340.868346  16564.313188   -355.363980               P   P
PE31   2058.434143 -23895.091039 -17340.261255   -493.664675               P   P
PE33   6724.448087 -18567.518110 -22048.273882   -458.497110               P   P
PE34  -6555.207594  18733.392864  21957.881021   -507.209096               P   P
PE36 -17624.238242  -1056.281808  23766.575099   -346.490875               P   P
EOF
